SHIYAN-24C 01           
1 58650U 23206A   26068.89348774  .00002076  00000+0  18089-3 0  9992
2 58650  97.3976  41.7846 0003675 132.3262 227.8273 14.97903598120444
STARLINK-35660          
1 67003U 25293A   26068.49468287  .00001883  00000+0  16551-3 0  9997
2 67003  70.0002  95.1494 0003498 266.2084  93.8675 14.98333771 14853
